start=new Date('2022-11-15T00:00:00.000Z').valueOf();
sats=[{"ARG_OF_PERICENTER":"74.7309","ELEMENT_SET_NO":"999","ECCENTRICITY":"0.00013200","CENTER_NAME":"EARTH","REV_AT_EPOCH":"8463","OBJECT_NAME":"STARLINK-2643","FILE":"3656014","INCLINATION":"53.0545","PERIAPSIS":"546.281","PERIOD":"95.592","GP_ID":"217784736","RCS_SIZE":"LARGE","MEAN_ELEMENT_THEORY":"SGP4","MEAN_MOTION_DDOT":"0.0000000000000","TLE_LINE1":"1 48367U 21038Q   22318.67622988  .00006283  00000-0  44027-3 0  9995","EPOCH":"2022-11-14T16:13:46.261632","MEAN_ANOMALY":"285.3826","SEMIMAJOR_AXIS":"6925.330","OBJECT_ID":"2021-038Q","RA_OF_ASC_NODE":"28.0782","SITE":"AFETR","LAUNCH_DATE":"2021-05-04","EPHEMERIS_TYPE":"0","TLE_LINE2":"2 48367  53.0545  28.0782 0001320  74.7309 285.3826 15.06405929 84631","COUNTRY_CODE":"US","OBJECT_TYPE":"PAYLOAD","DECAY_DATE":null,"TIME_SYSTEM":"UTC","MEAN_MOTION":"15.06405929","MEAN_MOTION_DOT":"0.00006283","APOAPSIS":"548.110","BSTAR":"0.00044027000000","REF_FRAME":"TEME","CLASSIFICATION_TYPE":"U","NORAD_CAT_ID":"48367"},{"TIME_SYSTEM":"UTC","DECAY_DATE":null,"OBJECT_TYPE":"PAYLOAD","COUNTRY_CODE":"US","MEAN_MOTION":"15.06403841","EPHEMERIS_TYPE":"0","TLE_LINE2":"2 48368  53.0550  28.7536 0001378  87.0105 273.1042 15.06403841 84621","BSTAR":"0.00092236000000","REF_FRAME":"TEME","NORAD_CAT_ID":"48368","CLASSIFICATION_TYPE":"U","MEAN_MOTION_DOT":"0.00013485","APOAPSIS":"548.156","PERIAPSIS":"546.247","GP_ID":"217784004","PERIOD":"95.592","REV_AT_EPOCH":"8462","ELEMENT_SET_NO":"999","ECCENTRICITY":"0.00013780","CENTER_NAME":"EARTH","ARG_OF_PERICENTER":"87.0105","INCLINATION":"53.0550","FILE":"3656014","OBJECT_NAME":"STARLINK-2623","SEMIMAJOR_AXIS":"6925.337","OBJECT_ID":"2021-038R","LAUNCH_DATE":"2021-05-04","SITE":"AFETR","RA_OF_ASC_NODE":"28.7536","MEAN_MOTION_DDOT":"0.0000000000000","MEAN_ELEMENT_THEORY":"SGP4","RCS_SIZE":"LARGE","MEAN_ANOMALY":"273.1042","EPOCH":"2022-11-14T14:06:26.441856","TLE_LINE1":"1 48368U 21038R   22318.58780604  .00013485  00000-0  92236-3 0  9993"},{"MEAN_ANOMALY":"293.8514","TLE_LINE1":"1 48369U 21038S   22318.60619964  .00014821  00000-0  10117-2 0  9999","EPOCH":"2022-11-14T14:32:55.648896","MEAN_MOTION_DDOT":"0.0000000000000","RCS_SIZE":"LARGE","MEAN_ELEMENT_THEORY":"SGP4","LAUNCH_DATE":"2021-05-04","SITE":"AFETR","RA_OF_ASC_NODE":"28.3913","OBJECT_ID":"2021-038S","SEMIMAJOR_AXIS":"6925.339","INCLINATION":"53.0545","FILE":"3656014","OBJECT_NAME":"STARLINK-2641","ECCENTRICITY":"0.00016170","ELEMENT_SET_NO":"999","CENTER_NAME":"EARTH","REV_AT_EPOCH":"8462","ARG_OF_PERICENTER":"66.2644","GP_ID":"217784254","PERIOD":"95.592","PERIAPSIS":"546.084","APOAPSIS":"548.324","MEAN_MOTION_DOT":"0.00014821","NORAD_CAT_ID":"48369","REF_FRAME":"TEME","CLASSIFICATION_TYPE":"U","BSTAR":"0.00101170000000","TLE_LINE2":"2 48369  53.0545  28.3913 0001617  66.2644 293.8514 15.06403214 84621","EPHEMERIS_TYPE":"0","MEAN_MOTION":"15.06403214","DECAY_DATE":null,"TIME_SYSTEM":"UTC","COUNTRY_CODE":"US","OBJECT_TYPE":"PAYLOAD"},{"OBJECT_NAME":"STARLINK-2621","INCLINATION":"53.0564","FILE":"3656014","ARG_OF_PERICENTER":"77.7419","ELEMENT_SET_NO":"999","ECCENTRICITY":"0.00013530","CENTER_NAME":"EARTH","REV_AT_EPOCH":"8462","PERIOD":"95.592","GP_ID":"217784505","PERIAPSIS":"546.284","TLE_LINE1":"1 48370U 21038T   22318.60251695 -.00001061  00000-0 -52317-4 0  9998","EPOCH":"2022-11-14T14:27:37.464480","MEAN_ANOMALY":"282.3721","RCS_SIZE":"LARGE","MEAN_ELEMENT_THEORY":"SGP4","MEAN_MOTION_DDOT":"0.0000000000000","SITE":"AFETR","RA_OF_ASC_NODE":"28.4084","LAUNCH_DATE":"2021-05-04","SEMIMAJOR_AXIS":"6925.356","OBJECT_ID":"2021-038T","TLE_LINE2":"2 48370  53.0564  28.4084 0001353  77.7419 282.3721 15.06397686 84626","EPHEMERIS_TYPE":"0","MEAN_MOTION":"15.06397686","COUNTRY_CODE":"US","OBJECT_TYPE":"PAYLOAD","TIME_SYSTEM":"UTC","DECAY_DATE":null,"APOAPSIS":"548.158","MEAN_MOTION_DOT":"-0.00001061","REF_FRAME":"TEME","NORAD_CAT_ID":"48370","CLASSIFICATION_TYPE":"U","BSTAR":"-0.00005231700000"},{"RA_OF_ASC_NODE":"28.1276","SITE":"AFETR","LAUNCH_DATE":"2021-05-04","OBJECT_ID":"2021-038U","SEMIMAJOR_AXIS":"6925.353","EPOCH":"2022-11-14T15:57:51.563232","TLE_LINE1":"1 48371U 21038U   22318.66518013 -.00000962  00000-0 -45682-4 0  9991","MEAN_ANOMALY":"282.4311","MEAN_ELEMENT_THEORY":"SGP4","RCS_SIZE":"LARGE","MEAN_MOTION_DDOT":"0.0000000000000","PERIOD":"95.592","GP_ID":"217785237","PERIAPSIS":"546.220","OBJECT_NAME":"STARLINK-2589","FILE":"3656014","INCLINATION":"53.0545","ARG_OF_PERICENTER":"77.6840","REV_AT_EPOCH":"8463","ELEMENT_SET_NO":"999","ECCENTRICITY":"0.00014410","CENTER_NAME":"EARTH","NORAD_CAT_ID":"48371","REF_FRAME":"TEME","CLASSIFICATION_TYPE":"U","BSTAR":"-0.00004568200000","APOAPSIS":"548.216","MEAN_MOTION_DOT":"-0.00000962","MEAN_MOTION":"15.06398562","OBJECT_TYPE":"PAYLOAD","COUNTRY_CODE":"US","DECAY_DATE":null,"TIME_SYSTEM":"UTC","TLE_LINE2":"2 48371  53.0545  28.1276 0001441  77.6840 282.4311 15.06398562 84632","EPHEMERIS_TYPE":"0"},{"MEAN_MOTION":"15.06401890","DECAY_DATE":null,"TIME_SYSTEM":"UTC","COUNTRY_CODE":"US","OBJECT_TYPE":"PAYLOAD","TLE_LINE2":"2 48372  53.0538  28.4407 0001691  75.5338 284.5838 15.06401890 84625","EPHEMERIS_TYPE":"0","CLASSIFICATION_TYPE":"U","REF_FRAME":"TEME","NORAD_CAT_ID":"48372","BSTAR":"0.00095069000000","APOAPSIS":"548.379","MEAN_MOTION_DOT":"0.00013908","GP_ID":"217783504","PERIOD":"95.592","PERIAPSIS":"546.037","INCLINATION":"53.0538","FILE":"3656014","OBJECT_NAME":"STARLINK-2572","ELEMENT_SET_NO":"999","ECCENTRICITY":"0.00016910","CENTER_NAME":"EARTH","REV_AT_EPOCH":"8462","ARG_OF_PERICENTER":"75.5338","LAUNCH_DATE":"2021-05-04","RA_OF_ASC_NODE":"28.4407","SITE":"AFETR","OBJECT_ID":"2021-038V","SEMIMAJOR_AXIS":"6925.343","MEAN_ANOMALY":"284.5838","TLE_LINE1":"1 48372U 21038V   22318.59514754  .00013908  00000-0  95069-3 0  9997","EPOCH":"2022-11-14T14:17:00.747456","MEAN_MOTION_DDOT":"0.0000000000000","RCS_SIZE":"LARGE","MEAN_ELEMENT_THEORY":"SGP4"},{"LAUNCH_DATE":"2021-05-04","RA_OF_ASC_NODE":"28.4463","SITE":"AFETR","OBJECT_ID":"2021-038W","SEMIMAJOR_AXIS":"6925.335","MEAN_ANOMALY":"272.8647","TLE_LINE1":"1 48373U 21038W   22318.59145899  .00003817  00000-0  27497-3 0  9996","EPOCH":"2022-11-14T14:11:42.056736","MEAN_MOTION_DDOT":"0.0000000000000","RCS_SIZE":"LARGE","MEAN_ELEMENT_THEORY":"SGP4","GP_ID":"217783754","PERIOD":"95.592","PERIAPSIS":"546.178","INCLINATION":"53.0539","FILE":"3656014","OBJECT_NAME":"STARLINK-2609","ECCENTRICITY":"0.00014750","ELEMENT_SET_NO":"999","CENTER_NAME":"EARTH","REV_AT_EPOCH":"8462","ARG_OF_PERICENTER":"87.2511","NORAD_CAT_ID":"48373","CLASSIFICATION_TYPE":"U","REF_FRAME":"TEME","BSTAR":"0.00027497000000","APOAPSIS":"548.221","MEAN_MOTION_DOT":"0.00003817","MEAN_MOTION":"15.06404448","DECAY_DATE":null,"TIME_SYSTEM":"UTC","COUNTRY_CODE":"US","OBJECT_TYPE":"PAYLOAD","TLE_LINE2":"2 48373  53.0539  28.4463 0001475  87.2511 272.8647 15.06404448 84622","EPHEMERIS_TYPE":"0"},{"GP_ID":"217785006","PERIOD":"95.593","PERIAPSIS":"546.292","FILE":"3656014","INCLINATION":"53.0554","OBJECT_NAME":"STARLINK-2604","ELEMENT_SET_NO":"999","ECCENTRICITY":"0.00013590","CENTER_NAME":"EARTH","REV_AT_EPOCH":"8464","ARG_OF_PERICENTER":"75.1434","LAUNCH_DATE":"2021-05-04","RA_OF_ASC_NODE":"27.8708","SITE":"AFETR","SEMIMAJOR_AXIS":"6925.368","OBJECT_ID":"2021-038X","MEAN_ANOMALY":"284.9705","TLE_LINE1":"1 48374U 21038X   22318.71952324  .00001932  00000-0  14859-3 0  9994","EPOCH":"2022-11-14T17:16:06.807936","MEAN_MOTION_DDOT":"0.0000000000000","RCS_SIZE":"LARGE","MEAN_ELEMENT_THEORY":"SGP4","MEAN_MOTION":"15.06393597","TIME_SYSTEM":"UTC","DECAY_DATE":null,"COUNTRY_CODE":"US","OBJECT_TYPE":"PAYLOAD","TLE_LINE2":"2 48374  53.0554  27.8708 0001359  75.1434 284.9705 15.06393597 84649","EPHEMERIS_TYPE":"0","NORAD_CAT_ID":"48374","REF_FRAME":"TEME","CLASSIFICATION_TYPE":"U","BSTAR":"0.00014859000000","APOAPSIS":"548.174","MEAN_MOTION_DOT":"0.00001932"},{"MEAN_ANOMALY":"283.1371","EPOCH":"2022-11-14T17:12:09.499968","TLE_LINE1":"1 48375U 21038Y   22318.71677662  .00008505  00000-0  58915-3 0  9998","MEAN_MOTION_DDOT":"0.0000000000000","MEAN_ELEMENT_THEORY":"SGP4","RCS_SIZE":"LARGE","LAUNCH_DATE":"2021-05-04","RA_OF_ASC_NODE":"27.8893","SITE":"AFETR","OBJECT_ID":"2021-038Y","SEMIMAJOR_AXIS":"6925.347","FILE":"3656014","INCLINATION":"53.0544","OBJECT_NAME":"STARLINK-2603","REV_AT_EPOCH":"8464","ELEMENT_SET_NO":"999","ECCENTRICITY":"0.00015560","CENTER_NAME":"EARTH","ARG_OF_PERICENTER":"76.9792","GP_ID":"217784737","PERIOD":"95.592","PERIAPSIS":"546.134","APOAPSIS":"548.289","MEAN_MOTION_DOT":"0.00008505","CLASSIFICATION_TYPE":"U","NORAD_CAT_ID":"48375","REF_FRAME":"TEME","BSTAR":"0.00058915000000","TLE_LINE2":"2 48375  53.0544  27.8893 0001556  76.9792 283.1371 15.06400586 84646","EPHEMERIS_TYPE":"0","MEAN_MOTION":"15.06400586","TIME_SYSTEM":"UTC","DECAY_DATE":null,"OBJECT_TYPE":"PAYLOAD","COUNTRY_CODE":"US"},{"COUNTRY_CODE":"US","OBJECT_TYPE":"PAYLOAD","TIME_SYSTEM":"UTC","DECAY_DATE":null,"MEAN_MOTION":"15.06396410","EPHEMERIS_TYPE":"0","TLE_LINE2":"2 48376  53.0558  28.5054 0001664  79.6247 280.4929 15.06396410 84621","BSTAR":"0.00003019200000","CLASSIFICATION_TYPE":"U","REF_FRAME":"TEME","NORAD_CAT_ID":"48376","MEAN_MOTION_DOT":"0.00000168","APOAPSIS":"548.377","PERIAPSIS":"546.072","PERIOD":"95.592","GP_ID":"217784005","ARG_OF_PERICENTER":"79.6247","ELEMENT_SET_NO":"999","ECCENTRICITY":"0.00016640","CENTER_NAME":"EARTH","REV_AT_EPOCH":"8462","OBJECT_NAME":"STARLINK-2610","INCLINATION":"53.0558","FILE":"3656014","OBJECT_ID":"2021-038Z","SEMIMAJOR_AXIS":"6925.360","RA_OF_ASC_NODE":"28.5054","SITE":"AFETR","LAUNCH_DATE":"2021-05-04","RCS_SIZE":"LARGE","MEAN_ELEMENT_THEORY":"SGP4","MEAN_MOTION_DDOT":"0.0000000000000","TLE_LINE1":"1 48376U 21038Z   22318.58039855  .00000168  00000-0  30192-4 0  9995","EPOCH":"2022-11-14T13:55:46.434720","MEAN_ANOMALY":"280.4929"}];
